{"type": "FeatureCollection", "features": [{"id": "0", "type": "Feature", "properties": {"complex_cd": "243100", "complex_nm": "오창과학", "factories": 193, "source": "국토교통부 산업단지 경계도면(15152766, 2026-06-30)", "targets": 689, "status": "운영"}, "geometry": {"type": "Polygon", "coordinates": [[[127.44237291603952, 36.729989464746254], [127.44323299453359, 36.72930553339069], [127.44325999609441, 36.7292839507681], [127.44365809259739, 36.72896581355301], [127.4437402354453, 36.72890453062699], [127.44433839484687, 36.7284239794409], [127.44453694498252, 36.72826446534752], [127.4445601448731, 36.72824583436086], [127.44459637123357, 36.72821672906009], [127.44467179198814, 36.72815684878389], [127.44481117728259, 36.72804616853567], [127.44512155060313, 36.72779969442696], [127.44518291721519, 36.72774877838705], [127.44525104814124, 36.72769449421084], [127.44562473023144, 36.72739676142478], [127.44598605150337, 36.7271088690724], [127.44608629630254, 36.727029007382065], [127.44611570355167, 36.72700556797461], [127.44664037986472, 36.72658751948657], [127.44708888712654, 36.726230155510315], [127.44715202341962, 36.72617984467139], [127.44718401512185, 36.726154358758556], [127.44746404155546, 36.72593199728433], [127.44750707624746, 36.725897702033684], [127.4477111258693, 36.72572760940259], [127.44804233112134, 36.72545151101729], [127.44810068478385, 36.72540286648962], [127.44832095258982, 36.725219250238176], [127.44833989087263, 36.72520346327662], [127.44863330489896, 36.72495886359893], [127.44871650326728, 36.72489012101025], [127.44872432489848, 36.72488365744399], [127.44883029466101, 36.724796086400346], [127.4488655777904, 36.72476692867099], [127.44899408538505, 36.72466073643805], [127.44880691510744, 36.724389665708145], [127.44869821805969, 36.72421525825521], [127.44864321690983, 36.72411984829851], [127.44858205601204, 36.72405654976415], [127.4485053874974, 36.724044871008985], [127.44850303480969, 36.724029020444014], [127.44849241312981, 36.72399255635601], [127.44846416021583, 36.72386911992905], [127.44844300938244, 36.723812069557795], [127.44815424144282, 36.723392965405075], [127.44809531914666, 36.723308392301924], [127.44797781142267, 36.72313915437243], [127.44781453004337, 36.72287456936918], [127.4475707084106, 36.72248395123361], [127.44747602957291, 36.72215837447984], [127.44727428412979, 36.72207478647261], [127.44728948631938, 36.72205166093085], [127.44722483187341, 36.72200144095991], [127.44720841156834, 36.72204619726227], [127.44700768750965, 36.721961081924995], [127.44691351981336, 36.72192114553341], [127.44687669697156, 36.7218694789121], [127.44680890740531, 36.72177438574044], [127.4467673782897, 36.721716059335684], [127.44661864243149, 36.72150746812781], [127.44659335305961, 36.72150891397966], [127.44653574859198, 36.721425173335824], [127.44649128737531, 36.721357097948164], [127.44640875825185, 36.72127396413919], [127.44641568785597, 36.72121383363298], [127.44638449385772, 36.721103654613515], [127.44626019127693, 36.72088073343671], [127.44600493498896, 36.72044563957447], [127.44593604408811, 36.72028144437849], [127.44569902539706, 36.72001938486111], [127.44560580901667, 36.71971245448378], [127.44523069950347, 36.71931979760066], [127.44516253623797, 36.71918416364184], [127.4451463387151, 36.719137384441105], [127.44514216154901, 36.719125307460295], [127.44513456270002, 36.719080757555766], [127.44504786988522, 36.71857246672702], [127.4447764897362, 36.71813391565993], [127.44439394576577, 36.7176333306452], [127.44416763050128, 36.7173225685229], [127.44396495440348, 36.7170466991543], [127.44377820274076, 36.71679145937484], [127.44346970061098, 36.71633763430474], [127.44333746141457, 36.71633454726083], [127.44331644982014, 36.71633405759672], [127.44330559188329, 36.7163201576164], [127.4433015665325, 36.71631500966158], [127.44319689573389, 36.7161164325682], [127.44312949693474, 36.71613281259649], [127.44296030823413, 36.715986568135406], [127.442812065551, 36.715858429559674], [127.44277992922002, 36.71562137630366], [127.4426436287403, 36.71550861201765], [127.44249520280087, 36.7152718990116], [127.44235295008401, 36.71517510614539], [127.44193943040588, 36.714870169114015], [127.4417774605669, 36.71467180215855], [127.44174746222637, 36.714632264518755], [127.44136752516677, 36.71413093873188], [127.44129713677441, 36.71399567151205], [127.44127530681466, 36.71393600842512], [127.44124517732001, 36.71385357806072], [127.4412258491684, 36.71380084455912], [127.44120469294518, 36.71356858023452], [127.44119934437593, 36.713509883217924], [127.4411507769601, 36.71345434676863], [127.4411161343295, 36.71341473577002], [127.44096039610365, 36.713236647331335], [127.44096181364515, 36.71323006396411], [127.4409549765675, 36.713228377435236], [127.4408627088081, 36.713122656773926], [127.44085918381889, 36.71311882211174], [127.44068285351176, 36.712927148528195], [127.44067480011525, 36.71292807965133], [127.44067094274942, 36.71291899237874], [127.44052644873597, 36.712761380345654], [127.44022789814284, 36.71234312110315], [127.44018008531185, 36.712276146670554], [127.44006881728583, 36.71203695076316], [127.43993868463885, 36.711920610063686], [127.43989443003468, 36.7118810429228], [127.43983201868195, 36.71182525108793], [127.43967114029603, 36.71165949781137], [127.4391423308344, 36.71111068296242], [127.43906694421571, 36.71098285815894], [127.43903495161523, 36.71092861182301], [127.43887337434002, 36.7106546278855], [127.43867638457799, 36.7104947729845], [127.43848389357886, 36.71025965838951], [127.43844781544045, 36.71021311356484], [127.43843203743083, 36.71021353197292], [127.4384314768821, 36.71019370907731], [127.43836308813948, 36.71011349132753], [127.43833703250466, 36.71011737150934], [127.43828037755632, 36.710073604948505], [127.43828795664236, 36.71002861122146], [127.43814342040811, 36.70986180552359], [127.43769683823601, 36.709481190473205], [127.4375369246407, 36.70934390582165], [127.43751487100047, 36.70932497353952], [127.43742973496603, 36.70924185983682], [127.43735101380106, 36.70916499488522], [127.43714505705586, 36.708961826994646], [127.43713971207993, 36.708946797904495], [127.4371229881443, 36.708938298534655], [127.43708784245713, 36.70889805722497], [127.43684697538333, 36.70853732194321], [127.43680273155894, 36.70847134234607], [127.4367477268158, 36.70836268909299], [127.43671219934467, 36.70831424907379], [127.43658371780113, 36.70811557280272], [127.43654633980046, 36.708056325730126], [127.43652205654172, 36.70801712604773], [127.43639869000545, 36.70789178141632], [127.43615375895331, 36.70764297768044], [127.43599493681108, 36.70748162718772], [127.43550339934889, 36.706903914704334], [127.43523402244293, 36.70658563221641], [127.43490115261274, 36.706180622531534], [127.43459179438844, 36.70585653661835], [127.43448241821439, 36.70575024262293], [127.43404376996284, 36.70524018481717], [127.4336548695134, 36.70477968653979], [127.43353591640009, 36.70464143705836], [127.43323361623898, 36.704336515838484], [127.43307573014133, 36.70442026070554], [127.43299959881932, 36.70445459867455], [127.43206918403511, 36.704939161540295], [127.43200937240691, 36.704970286462064], [127.4318278183964, 36.7050648386785], [127.43164605957001, 36.70516290606971], [127.43097471891377, 36.705508834125276], [127.4307410644134, 36.70563303897448], [127.4299542372426, 36.706042455511394], [127.42993570320166, 36.7060301769793], [127.42974354457921, 36.705868397466666], [127.42968071281497, 36.70581933290847], [127.429051384568, 36.705266778851744], [127.42897819253355, 36.70520585584147], [127.42893310519116, 36.70516781062427], [127.42843252888052, 36.70474446142605], [127.42814640198782, 36.704507232720324], [127.42812954060989, 36.70449368638174], [127.42807457269771, 36.70444972864434], [127.42806954752201, 36.70444570053416], [127.42788797374857, 36.704300271428735], [127.42762042401591, 36.70408270954363], [127.42727437769707, 36.7037953211046], [127.42723188199426, 36.70376032960863], [127.42695292186087, 36.703502256300844], [127.42691203144746, 36.70345374263695], [127.42685021388121, 36.70336475282578], [127.42676751317954, 36.70324294767473], [127.42669397259878, 36.703158775876226], [127.42660090803366, 36.70300429694306], [127.42652240785424, 36.702893289483015], [127.42639034023611, 36.70264658557833], [127.42636693373306, 36.70260269448542], [127.42635438337021, 36.70257931028386], [127.4261691705216, 36.70225313709358], [127.42602600511644, 36.702022962537484], [127.42593878588886, 36.701852422355785], [127.42581182788807, 36.701659225468305], [127.42565834443359, 36.70140412615487], [127.42544830574377, 36.70105974758103], [127.42536730734956, 36.700920994443656], [127.42533827469789, 36.70087135629761], [127.42506295723295, 36.70037672326677], [127.42499954425877, 36.700281610694546], [127.42474235749123, 36.69984782770898], [127.4246546855127, 36.69967512555147], [127.42435165681796, 36.699123089121585], [127.42434520601587, 36.69911194676771], [127.42432667736486, 36.69907966274255], [127.42431733398759, 36.69906343105298], [127.42425877640747, 36.6989616775266], [127.42418860989892, 36.698858839157005], [127.42408567015393, 36.69873827507449], [127.42407337940415, 36.69872128776081], [127.4239407799834, 36.69857920207803], [127.4238121286583, 36.69846323426733], [127.42363928291617, 36.69831766851674], [127.42345496029793, 36.69816073527619], [127.42282365845227, 36.697616354521436], [127.42280404194139, 36.69759998783246], [127.42280140089446, 36.69759778020546], [127.42277048627228, 36.697571937640134], [127.42276070631381, 36.697563771937986], [127.42251053089703, 36.697336386639385], [127.42247449857271, 36.69730364089412], [127.42238099742636, 36.69723233315541], [127.42235624255207, 36.697213371239535], [127.42232771116032, 36.69719148428785], [127.4222557156819, 36.69713626665094], [127.42211048684655, 36.69700420787392], [127.4219632421917, 36.6968757063162], [127.42194602597925, 36.69685819494978], [127.42195585085352, 36.69683347000571], [127.4219070795201, 36.696816070272654], [127.42185999791776, 36.696765864057916], [127.42181602358798, 36.6967189811735], [127.42169083167502, 36.696614596245695], [127.42163965106006, 36.696571911057696], [127.42160877776033, 36.6965533667411], [127.42159353873986, 36.69652900039834], [127.4215436534955, 36.69649186996376], [127.42150196358148, 36.69645975770554], [127.4214619032114, 36.696439172806826], [127.42142844545863, 36.69640836495542], [127.42142350562293, 36.69640941872648], [127.42141752374145, 36.6963937691805], [127.42140579174382, 36.696388836695355], [127.42119960862316, 36.69621247205195], [127.42111270919587, 36.69613861205703], [127.42085192647221, 36.69591182758306], [127.42073044639805, 36.695806185379524], [127.42056885654642, 36.69567493031976], [127.42055690895312, 36.69566523092313], [127.42054697358607, 36.6956489560156], [127.42041494639213, 36.695548225101895], [127.42020994725104, 36.69532927205221], [127.42009079291509, 36.69524163418684], [127.42004293337173, 36.6952064068629], [127.42000971187589, 36.69518194141317], [127.41983490331491, 36.695043161819775], [127.41961877135245, 36.6948714745688], [127.41947991336912, 36.69476116125424], [127.41943942001103, 36.69472228468683], [127.4193745257149, 36.6946614080614], [127.41936115159697, 36.69465064177638], [127.41931773781593, 36.69460970294043], [127.41918952037707, 36.69448868272743], [127.4187382732537, 36.69412215917222], [127.4183871837929, 36.69383971800338], [127.41834998455695, 36.69380975042699], [127.41832164360808, 36.693783176918785], [127.41828239262003, 36.69374627853716], [127.41781768424207, 36.69333032740142], [127.41783550861395, 36.69331584701203], [127.4175380889998, 36.693045470277006], [127.417204402601, 36.69277233666598], [127.41714395496558, 36.6927261399678], [127.41710148980545, 36.69269682168213], [127.41691465998925, 36.69253475046985], [127.41687137915889, 36.69249721688932], [127.41669623103468, 36.69234526862066], [127.41650197215108, 36.69217671594308], [127.41639366048065, 36.692093559925674], [127.41634408425676, 36.69205686818589], [127.41632434647335, 36.69204225789873], [127.41618402513441, 36.69192432238949], [127.41616664812355, 36.69190971279749], [127.41604787736823, 36.6917750489938], [127.41604376308426, 36.69177146754088], [127.41604383045791, 36.691771458176675], [127.41581708310376, 36.69157409191664], [127.4155832471437, 36.69136918115336], [127.4154421748132, 36.69120674985912], [127.41543856268747, 36.69128434805715], [127.415366966061, 36.69121606732321], [127.41532045848207, 36.69117333591811], [127.41527233483403, 36.69113387190797], [127.41518764526228, 36.69106516748578], [127.41516760205168, 36.691041537743196], [127.41507965968032, 36.69093803471736], [127.41504500357496, 36.69090193958181], [127.4149729721639, 36.690844338167565], [127.41481594844886, 36.690711427952834], [127.41466377922958, 36.690586610478206], [127.41436207195657, 36.69030551776099], [127.41420899094734, 36.69017727873606], [127.41405169324617, 36.69003445620154], [127.41398554669851, 36.68997845617623], [127.41397788047587, 36.68997812193794], [127.41388090105275, 36.68989997063981], [127.41376039834559, 36.68977477222726], [127.41364019477743, 36.689663720450945], [127.41362402510235, 36.68965286414343], [127.413576413494, 36.689620957928675], [127.41343308190051, 36.68953701901333], [127.41314263860284, 36.68928940566654], [127.41280708370824, 36.68899553999737], [127.41264767316952, 36.688875340792805], [127.41260900967963, 36.68882167746585], [127.41258427456827, 36.688820321042954], [127.41259687703345, 36.68882944214012], [127.41259396918683, 36.68889482774018], [127.41259274747804, 36.6888985901352], [127.41256372470788, 36.688957694938445], [127.4125124111422, 36.689054174337606], [127.41250620827519, 36.68906803746947], [127.41240347873592, 36.68920192803763], [127.41229003409194, 36.68934919233806], [127.41217694068922, 36.689495220963565], [127.41200795949949, 36.68971527978682], [127.41188048406904, 36.68987765876533], [127.41179052947149, 36.6899924192689], [127.41170195827942, 36.690106355532286], [127.41150718286455, 36.690355860016226], [127.41147792024417, 36.6903932765067], [127.41132882865308, 36.69058153715504], [127.41111604830502, 36.69086269657458], [127.41097526074044, 36.691047548907214], [127.41082079093576, 36.69124749745876], [127.41071316737481, 36.69139844375972], [127.41044522507838, 36.69174422126531], [127.41027326597346, 36.69198072365788], [127.41023995644268, 36.6920295888766], [127.41016829603582, 36.692104987823676], [127.40969435118018, 36.69272576972566], [127.40962956827512, 36.69281114723011], [127.40950210542114, 36.69290784149015], [127.40923821811992, 36.69310814463984], [127.40921520418063, 36.69312561508231], [127.40868654383931, 36.69352654602471], [127.40863487543913, 36.69356572284469], [127.40851361724879, 36.69365771831538], [127.40836945651033, 36.69376704711459], [127.40810069315373, 36.69396896870954], [127.40792223383941, 36.694107826594006], [127.40784662084533, 36.694166666643795], [127.40772458381564, 36.69425977137944], [127.40760226201999, 36.69434339757105], [127.4075765944574, 36.69436282334779], [127.40697644888073, 36.694817102333516], [127.40678728703807, 36.69496024011706], [127.40644257741239, 36.695221087137384], [127.40623667456614, 36.6953771036866], [127.40598093857778, 36.695570874587], [127.4058869586294, 36.69564208446702], [127.40560882943764, 36.69585282680443], [127.4053562115017, 36.69604423325277], [127.40533548018153, 36.696059946975154], [127.4052903290587, 36.69609414462231], [127.40523501260016, 36.69613605361001], [127.40517599508266, 36.69618076879784], [127.40494782839036, 36.69635361926073], [127.40494031667797, 36.69635931236533], [127.40491223983375, 36.69638058371347], [127.40485274351418, 36.69642567042403], [127.404341925511, 36.696812743312414], [127.40427327715528, 36.69686476315321], [127.40424173461075, 36.69688865904905], [127.40424222688748, 36.696897308128335], [127.40422847727378, 36.696899968108994], [127.40415593741623, 36.696954604652994], [127.4038821506806, 36.697158776655336], [127.40388309750494, 36.697160143014976], [127.40371264756962, 36.697288533175254], [127.40290091730246, 36.6978999940254], [127.40283517499674, 36.69794951524621], [127.40274483771684, 36.69801862911006], [127.40271123264034, 36.69804433395452], [127.4020299215828, 36.698563138103545], [127.40124583068028, 36.69916019379665], [127.40131405592949, 36.701465287695065], [127.40179760377558, 36.702517940044956], [127.4018192567672, 36.70256506714957], [127.40215963471655, 36.70330600840269], [127.40231405870712, 36.70364217224413], [127.40239640187934, 36.70382086485058], [127.40245854104249, 36.70395571497529], [127.40249730783863, 36.704039847729916], [127.40262936198201, 36.70432829972024], [127.40310687584432, 36.70537135152492], [127.40320010120784, 36.705573887214314], [127.40321992073798, 36.70561694766637], [127.40331375875252, 36.70582083234983], [127.40334486381757, 36.70588841016842], [127.4038974912107, 36.707090017590374], [127.40407255309665, 36.70747065960825], [127.40437200469997, 36.707843230193504], [127.40443448881621, 36.707920748944105], [127.40490481256302, 36.70850422232615], [127.40492574330911, 36.70853018436459], [127.40537906015093, 36.70909616902643], [127.4055345576283, 36.7092903179955], [127.40619571408409, 36.71011579941641], [127.40636653682023, 36.710329070128864], [127.40706425830143, 36.71120016286288], [127.40748527352227, 36.711725788650874], [127.40766017011818, 36.71194413545004], [127.40772810970311, 36.71202968964652], [127.40780030820083, 36.71212056409589], [127.40807494114947, 36.712466212386516], [127.40830982544347, 36.71276183978714], [127.40833488304996, 36.71279321214488], [127.40871847265949, 36.7132735363571], [127.40873718995675, 36.71329969481788], [127.40876479608374, 36.71333466252702], [127.40879138801276, 36.71336835416397], [127.40955636276598, 36.71433641315883], [127.41049429734741, 36.714884675687486], [127.41085730385876, 36.71509689261012], [127.41110204177306, 36.7152399674247], [127.41125178913434, 36.715326364073], [127.4112869527878, 36.715346653711684], [127.41195786135435, 36.715738939169526], [127.41230018415635, 36.71593910289437], [127.41294129290999, 36.71631395040268], [127.41316715272862, 36.7164460112864], [127.41353839589283, 36.716713709063264], [127.41371697288649, 36.716842481331355], [127.41403861108071, 36.71707441243907], [127.41406020747841, 36.717089990086], [127.41416262620062, 36.71716383282768], [127.41419520090942, 36.71718732924525], [127.41430475494991, 36.71726632770575], [127.41439752217265, 36.717333220019064], [127.41468663506542, 36.71754172535143], [127.41470847400825, 36.71755647336827], [127.41477683849637, 36.71760614826271], [127.41492235389426, 36.717711649610294], [127.4149258600188, 36.717714178535864], [127.41498256976436, 36.717755009295075], [127.41508939472305, 36.717831926860114], [127.41621433339374, 36.71864187023636], [127.4164843966126, 36.71883631695636], [127.41666950076505, 36.718969576740086], [127.41708874810142, 36.719269625528185], [127.41724700520332, 36.719382883299], [127.41782529297255, 36.71980546634971], [127.41788450093293, 36.71984589924349], [127.41828104155385, 36.72012851487032], [127.41837464959974, 36.72019633788648], [127.41975600428351, 36.72119689881058], [127.41987287689857, 36.72128154408338], [127.41993550384692, 36.72132673931415], [127.42006042087537, 36.72141688920025], [127.4202208833413, 36.72153268556565], [127.42034639685114, 36.72162326507672], [127.42045506515278, 36.721701729742975], [127.42049272073282, 36.72172845920876], [127.4216201153975, 36.72252868205355], [127.42165945711538, 36.722556604331025], [127.42264827407116, 36.72326879862484], [127.42341833508554, 36.72382343585795], [127.42449709226584, 36.724600365937675], [127.42522734892997, 36.72512627876874], [127.42526007635237, 36.725149852672025], [127.42592574504593, 36.72640263742789], [127.42595045500441, 36.726450163883186], [127.4261046103988, 36.72674669218504], [127.42613656167674, 36.7268081510722], [127.42629259544839, 36.72710804252018], [127.4263382819671, 36.72719582764525], [127.42646362120372, 36.727436634489905], [127.42656331264075, 36.72763046783471], [127.42767272752504, 36.72871116704407], [127.42788541893988, 36.728920507621424], [127.42793510296161, 36.72896941343201], [127.42822996507215, 36.72925962216221], [127.42852405283492, 36.729549075986625], [127.42854945808952, 36.72957408127271], [127.42899618848368, 36.73000879439685], [127.42952556927386, 36.73000438676464], [127.42960101877455, 36.73000376399395], [127.42967230458395, 36.73000316570214], [127.43037205086779, 36.72999733901637], [127.43049471851477, 36.72999631162466], [127.4305809477989, 36.72999559525834], [127.43061213550892, 36.7299953382304], [127.43067276370576, 36.72999483137423], [127.43080788110426, 36.729993983974026], [127.43186404296021, 36.729987088137726], [127.43256663959846, 36.7299824911531], [127.43356775808368, 36.729975977617876], [127.43391628554929, 36.730121322126145], [127.4348585266542, 36.730514383122326], [127.43575799088354, 36.7308895353186], [127.43635167757334, 36.73113866910431], [127.4370806352736, 36.731444849704744], [127.43715170189407, 36.73147469533279], [127.43727743010123, 36.731527499495606], [127.43777646400446, 36.731739694195284], [127.43815421186964, 36.73190031914897], [127.44042621920818, 36.730870095736165], [127.4407264658205, 36.730733947965184], [127.44077234727365, 36.73071317065869], [127.44128216096033, 36.73048265802126], [127.44237291603952, 36.729989464746254]]]}}, {"id": "1", "type": "Feature", "properties": {"complex_cd": "243840", "complex_nm": "오창테크노폴리스", "factories": 0, "source": "국토교통부 산업단지 경계도면(15152766, 2026-06-30)", "targets": 0, "status": "조성 중"}, "geometry": {"type": "Polygon", "coordinates": [[[127.36803570392121, 36.75574760081324], [127.36933891595505, 36.75510390087837], [127.36920258942415, 36.75492184838941], [127.36929073301815, 36.75476225980527], [127.36957303129114, 36.75461383974174], [127.37010975491047, 36.75443675947211], [127.37056522411574, 36.75423722150716], [127.37060615405503, 36.75421841473009], [127.37068140592635, 36.75418785892571], [127.37076210428326, 36.75416738737923], [127.37087692245129, 36.75415115365422], [127.3708966584381, 36.75414984876627], [127.37096603263257, 36.754124240426485], [127.37110750471338, 36.75413650695187], [127.3711693025167, 36.75413292624657], [127.37120282135493, 36.754126235545336], [127.37134683297309, 36.754098411837724], [127.37144677953154, 36.75406589613242], [127.37151447836798, 36.75402501846535], [127.37158553600527, 36.75395822361232], [127.37165196372563, 36.753920756024414], [127.37164803359627, 36.753890518227436], [127.37167264474007, 36.75380127735898], [127.37188966962793, 36.753785264517546], [127.37189291524103, 36.753784840588914], [127.37207245253366, 36.75368357339614], [127.37218954703265, 36.75366843070084], [127.3721990107842, 36.75366398556094], [127.37234734150219, 36.75364014906973], [127.37246818107764, 36.75361444195479], [127.37280607877844, 36.7536051162229], [127.37288465531469, 36.75355363358517], [127.37297069235936, 36.753574514110596], [127.37311464918024, 36.75360074665259], [127.37314963586564, 36.75361064890044], [127.3732245535637, 36.7536108288366], [127.37375101482918, 36.75380921108437], [127.37382487521015, 36.75384548395426], [127.3739258036273, 36.75392149232026], [127.37397430816105, 36.75399197803765], [127.37399868753954, 36.7540545559018], [127.3740202884289, 36.75412854087203], [127.3740352822093, 36.7541677191791], [127.37405003703782, 36.75417383696418], [127.37408899876834, 36.75418585301236], [127.37419199690387, 36.75421731208997], [127.37437860303953, 36.754246671676924], [127.3745457795139, 36.75426428656004], [127.37477497567546, 36.7543055599556], [127.37483481515153, 36.754320798970056], [127.37487590858414, 36.75433126683895], [127.37493538783576, 36.75435775318959], [127.37501156317522, 36.75438614251682], [127.37512785817361, 36.75441604544066], [127.37525035424235, 36.7544061447362], [127.37539851787375, 36.75437787129419], [127.37553609396122, 36.754369338086164], [127.37581023463312, 36.7543239974857], [127.37594349521395, 36.75430094211548], [127.37606665693431, 36.75421372419108], [127.37617433439414, 36.75415721026273], [127.3763853540443, 36.7540760675031], [127.3764056011725, 36.75407163318296], [127.37642154806535, 36.75405325461091], [127.37648748979717, 36.75398546366074], [127.3765260948965, 36.75394726123005], [127.37659426984003, 36.75389867506362], [127.37664452968181, 36.753853073638226], [127.3766718447547, 36.75384197592935], [127.37674915646296, 36.75384173193664], [127.37683615919659, 36.75384922517553], [127.37706211603323, 36.75390148853494], [127.37707052426433, 36.753873572618765], [127.37727912115814, 36.753913644255704], [127.37745129675709, 36.75395516399147], [127.37761160561111, 36.753999713094856], [127.3776574403518, 36.75401340904554], [127.37775400026169, 36.7540149147435], [127.37798767183006, 36.75397508571229], [127.37811431092888, 36.75390344335404], [127.37828895869151, 36.75384123675383], [127.37847379514601, 36.75373525819465], [127.37865529346097, 36.753640643534126], [127.37864741972756, 36.753624313251876], [127.37883348058584, 36.7535536530183], [127.37889757268641, 36.753538518934285], [127.37902184831773, 36.75351967887766], [127.37904068059935, 36.75351681644967], [127.37910264099774, 36.75338883406746], [127.37916807967298, 36.7533102751084], [127.37923556830359, 36.75325703968645], [127.37931774708412, 36.753212597394366], [127.3793999833568, 36.75317994168237], [127.37952072052423, 36.75315893149475], [127.37964672900581, 36.753144284603025], [127.37973846136936, 36.75307053476148], [127.37978708448071, 36.75304095879942], [127.37982970235441, 36.75302905485295], [127.37989549855908, 36.75301904168845], [127.37994048708684, 36.75300870751407], [127.38009882683379, 36.752919102145505], [127.38007445643845, 36.75288664999826], [127.38036878494972, 36.75273071352535], [127.38038589965247, 36.752701850707716], [127.38040370156651, 36.752651250601595], [127.38041374383303, 36.7525481681308], [127.3804088066922, 36.752477825037936], [127.3803760011164, 36.752355883997815], [127.38035481435038, 36.752294459238435], [127.38030350527629, 36.75218517413344], [127.38037558429806, 36.7520957714948], [127.38037030579746, 36.75201968934405], [127.38033536043457, 36.751947577315654], [127.38026563769381, 36.751864878974615], [127.38039987833665, 36.75174610895224], [127.38035596329561, 36.751699048728106], [127.38024884279127, 36.7515987360677], [127.3801647164632, 36.75153126756228], [127.38015340487716, 36.751519562036506], [127.38012267440959, 36.75144371467752], [127.38007871894447, 36.751265146530606], [127.3800207767103, 36.75107982006277], [127.37992194765602, 36.75090945572781], [127.37996397623489, 36.750741301433145], [127.37998603795994, 36.75055252094719], [127.3799445699298, 36.750367376300694], [127.37991521029139, 36.75018974351787], [127.37990053810788, 36.750013552040066], [127.37990379539909, 36.749937929202936], [127.38013034153055, 36.749938893706975], [127.38016688948792, 36.74994068811632], [127.3802325347756, 36.749943921363965], [127.38030168439126, 36.74991722691285], [127.3805114967056, 36.74968032413904], [127.38052691808412, 36.74966717300929], [127.38068855285151, 36.749598002679555], [127.38090106190835, 36.74954999030483], [127.38112360604528, 36.749536556278045], [127.38133983861901, 36.749496542097006], [127.3815467430868, 36.74952937572359], [127.38178834138917, 36.749610217384486], [127.38202681535105, 36.7495233993654], [127.38222467737721, 36.74950031951952], [127.3824382428529, 36.74959163980359], [127.3826845105981, 36.74964742219775], [127.3829250866177, 36.7495849616624], [127.38313406349887, 36.74952491810757], [127.38336035450884, 36.74956717439672], [127.38358876823783, 36.74948640538857], [127.38380106529235, 36.749495455224256], [127.38401680828417, 36.74949474407835], [127.38424028577072, 36.7495588961765], [127.38448470029151, 36.749563877072525], [127.38469921977797, 36.74949509893151], [127.38491258672595, 36.74955702906018], [127.38515215573416, 36.74955809577812], [127.38575022889745, 36.74959703097344], [127.3857886166045, 36.749599529337836], [127.38585957273216, 36.74959876852793], [127.385968047896, 36.74960164405819], [127.38605716256878, 36.74961805365296], [127.38622554997218, 36.74964865158515], [127.38637740208614, 36.74968450247079], [127.38652662213632, 36.749731355194065], [127.38662543142766, 36.749742740690124], [127.38680550860782, 36.749811182471696], [127.38688376175057, 36.74982531103829], [127.3869916045004, 36.749853860394225], [127.38704320642525, 36.74985218834547], [127.38721664595379, 36.74977325651764], [127.3872763569707, 36.749684790383384], [127.38729589173487, 36.749585361861456], [127.38727976967049, 36.74950078234009], [127.38727985860373, 36.74949613254031], [127.38728172081132, 36.749391840911656], [127.38729083511812, 36.7493760603601], [127.38731059446116, 36.749285597083684], [127.38736328873745, 36.7491890255955], [127.38743798006001, 36.749102366892565], [127.38752583349817, 36.749034679535946], [127.38765051426972, 36.74895785152819], [127.38774175076325, 36.74890163316049], [127.38785810325378, 36.74882521961831], [127.38799227921791, 36.74873710652793], [127.38809272254476, 36.748639109162696], [127.38814261587396, 36.74853370644946], [127.38814954547803, 36.7484663619324], [127.38813424716874, 36.748291786035004], [127.38813320152978, 36.74826407105985], [127.3881190575556, 36.74823044295781], [127.388123617404, 36.748183975848285], [127.38812958760737, 36.748168745692034], [127.38812700584926, 36.74810056733048], [127.3881237539479, 36.748014738044226], [127.38810257616512, 36.74788456117609], [127.38807024400138, 36.74779652834283], [127.38805139195685, 36.74773721614471], [127.38804470669452, 36.74767019483882], [127.38803719228711, 36.74764752976043], [127.38806212323124, 36.74752376282423], [127.38814303269221, 36.74736005669229], [127.38820084916227, 36.74726729774302], [127.38822964106544, 36.747221112933474], [127.38827912296622, 36.747154341669045], [127.38835741293984, 36.74706015581531], [127.3883846040452, 36.7470320970477], [127.3883994927227, 36.747017883029635], [127.38840134954037, 36.747001945791844], [127.3883081870589, 36.74699275961855], [127.38818303646848, 36.74702007340086], [127.38805574339604, 36.74706438899502], [127.38795629270757, 36.747089754237436], [127.387883741172, 36.74709789236188], [127.38780535148535, 36.747093974459005], [127.38774118212969, 36.747112484263056], [127.38772986335705, 36.74707707197719], [127.38761319106632, 36.747064411309005], [127.3875222483219, 36.74704689122692], [127.3874386573897, 36.74701510097743], [127.38734018137335, 36.747018250131006], [127.38723565430523, 36.74705855280706], [127.38715412680325, 36.74709894327834], [127.38711202456255, 36.74715695816104], [127.38706815533564, 36.747200001781025], [127.38701658395347, 36.74722763508279], [127.38696406844203, 36.74725453201479], [127.3868848064912, 36.74727552294496], [127.38680014386894, 36.747282339489495], [127.38669396839228, 36.74726621947633], [127.38658540429519, 36.74727414955869], [127.38647831882511, 36.74730221399627], [127.38641233846585, 36.74730348157085], [127.38634775229187, 36.74735055744745], [127.38624826567077, 36.74744064726827], [127.38618351959664, 36.74746714175611], [127.38609921270726, 36.74742869350631], [127.38590404113533, 36.74737901558935], [127.38572030691367, 36.747346096825645], [127.38554812502656, 36.74731707794438], [127.38536536278198, 36.74731946049464], [127.38524653812782, 36.74728387195226], [127.38508169637483, 36.74720643899518], [127.3849905056954, 36.7472650080459], [127.38489127419584, 36.74734600397099], [127.3848048248245, 36.747441700339365], [127.38459310359012, 36.74710593547112], [127.38439917259166, 36.7469833423862], [127.3842240846545, 36.746849099731925], [127.38401301380043, 36.74674054611488], [127.38379535560037, 36.74666281244885], [127.3835990907788, 36.746581685516915], [127.38341107877969, 36.74648485221343], [127.38321117937444, 36.7464248940498], [127.38305609332548, 36.7463267108991], [127.38294116196977, 36.746185929742744], [127.38281988042326, 36.74601746853234], [127.38254377872909, 36.74598323695952], [127.38239888855857, 36.74585666221064], [127.38232839147004, 36.74568910149076], [127.38226443501509, 36.745485511218256], [127.38214562922549, 36.74532809846427], [127.38214558880128, 36.74532669265118], [127.38224955352409, 36.74513166660598], [127.38226311449161, 36.745070734901816], [127.3823744274334, 36.74488566988608], [127.3823390634556, 36.74468998119786], [127.38229426716735, 36.74450702796521], [127.38224066379603, 36.74432035492543], [127.3822303762894, 36.74430277087164], [127.38207153079098, 36.74413149169786], [127.38207806513633, 36.743960502955225], [127.38238170827876, 36.743705581534435], [127.38215076219903, 36.74347210401678], [127.38191303922873, 36.743314962832095], [127.38167029198108, 36.74320589312779], [127.38146657743083, 36.743090021468845], [127.38125173814414, 36.742940888495106], [127.38095987101673, 36.742860909381406], [127.38068942601397, 36.74294990886929], [127.38047860399313, 36.74299122002432], [127.38027116053622, 36.74297731839017], [127.38005369637219, 36.74291331051754], [127.37983475178463, 36.742851001427134], [127.37960173059655, 36.7427358145264], [127.37947266424983, 36.742637264572586], [127.37924881665744, 36.74265487996139], [127.37902503733697, 36.74268652516836], [127.37880113404908, 36.742692840387136], [127.37857741581408, 36.74273689285674], [127.3783537936988, 36.74280093111006], [127.3781300512093, 36.74284009864481], [127.37810094309913, 36.74285454522693], [127.37799844891852, 36.74287077414363], [127.37777865901629, 36.742979124479795], [127.37758732235228, 36.74298687504411], [127.3773674884326, 36.74287043437659], [127.3772415697826, 36.74285661262341], [127.37724146018815, 36.74283187800643], [127.37724487378624, 36.74265239288844], [127.37725155904857, 36.74247346595366], [127.37726771524899, 36.74229649947541], [127.37728476437475, 36.7422199325063], [127.37736910629843, 36.742196435829115], [127.37743612331357, 36.74218602389278], [127.37744487020952, 36.7421314065546], [127.37747880856091, 36.742083540677235], [127.37754118218437, 36.74198423979824], [127.37757357094195, 36.74190796621827], [127.37757236001298, 36.74185484094149], [127.37753152260012, 36.74185408725336], [127.37751527207665, 36.74177290340832], [127.37753698615367, 36.74165650121103], [127.37753584708989, 36.741512642732104], [127.37747914093758, 36.74138028661776], [127.37747493592376, 36.74133551494942], [127.37746533832325, 36.74125227391415], [127.37748511383595, 36.74119545961521], [127.37747831179259, 36.74112545596761], [127.37747836928473, 36.74110037741851], [127.3775082885736, 36.74103658393929], [127.3775014245465, 36.740917163676414], [127.37728463681398, 36.740886922194655], [127.37715153253998, 36.74091895325764], [127.377121669845, 36.74083121621668], [127.3770718349063, 36.7406337240032], [127.37703656974317, 36.74054473334733], [127.37712195011937, 36.740523396479496], [127.37709218623908, 36.74025366167754], [127.37711322837627, 36.7401052545818], [127.37739326918297, 36.739634117489125], [127.37698673031294, 36.73953933354687], [127.37675156664291, 36.73955597997305], [127.37651841519911, 36.739571997943536], [127.37643842920622, 36.739565175675025], [127.37628998080886, 36.739581836493095], [127.37620940102956, 36.73957024072535], [127.37611298305352, 36.73954107780798], [127.37601934177002, 36.73957651588742], [127.37587986394907, 36.73960998940896], [127.3756847597508, 36.73965880346526], [127.3756557306924, 36.73966634632082], [127.37546462938705, 36.739584793024875], [127.37534604098978, 36.73959217607522], [127.3752520834993, 36.739680320542256], [127.37521550140595, 36.73976956415639], [127.37516459387885, 36.7398646832755], [127.37513618106472, 36.739985511806736], [127.37506463115064, 36.74009760954761], [127.3749624486854, 36.74018914906377], [127.37487994022318, 36.74023716729527], [127.37482481151253, 36.74028394516125], [127.37477578775253, 36.740324144113465], [127.37476921298297, 36.74034912573383], [127.37476385543061, 36.740373472421794], [127.37477867224285, 36.74042740281684], [127.37478976104676, 36.74047685703567], [127.37480038362499, 36.74052014915743], [127.37478874684878, 36.740551913302795], [127.37468132181554, 36.740562081425836], [127.37460776955668, 36.740563781031994], [127.3745145594645, 36.74056601046021], [127.37438819794507, 36.74059869313655], [127.37434280607373, 36.74060057414833], [127.37421158736356, 36.74060591483925], [127.37409464198495, 36.74061071419012], [127.37405463461543, 36.74061262327639], [127.37397303884154, 36.7406388667286], [127.37397446626454, 36.74078366194984], [127.373965865794, 36.74084131447585], [127.37398773438125, 36.740941269749776], [127.37397125478738, 36.74103659545713], [127.37398942950225, 36.74129679727931], [127.37394902687399, 36.74137204926623], [127.37394837649376, 36.74143437179492], [127.37392709270974, 36.74154575260091], [127.37392193638, 36.74156083506105], [127.37388615109236, 36.74156989518957], [127.37370446862273, 36.74168656242544], [127.3735867569812, 36.741841579052654], [127.3734580607403, 36.74198951056714], [127.37333199207163, 36.74213914640671], [127.3732920942966, 36.742291603769914], [127.37323145621835, 36.74232707153303], [127.37316880052386, 36.742345794122855], [127.3730911133198, 36.74238886635607], [127.37307139080772, 36.74247605597087], [127.37299814756938, 36.742588806575746], [127.37290679429489, 36.74261679138401], [127.37282703557572, 36.74263437798361], [127.37272866466226, 36.74266298832259], [127.37263862562295, 36.74269888134364], [127.37252585920704, 36.74269332124498], [127.37245039712994, 36.74268026537733], [127.37237937003539, 36.742671980655395], [127.37231377146009, 36.74264920612364], [127.37224150379204, 36.742611233438915], [127.37213742857654, 36.74261772142734], [127.37204578424783, 36.74265046441707], [127.37195596709252, 36.74266282851645], [127.37179976443763, 36.74274959527012], [127.37173967433164, 36.74280134430173], [127.37167714260468, 36.742820380628665], [127.37161430275566, 36.74285240296648], [127.37157353181813, 36.742954247373056], [127.37152471017907, 36.74301630515405], [127.3713808288167, 36.74308801238603], [127.37127302918596, 36.74322639711246], [127.37121821668225, 36.74337487231683], [127.37114888021704, 36.74345084354594], [127.37110683906174, 36.743535435494415], [127.37100928202189, 36.74359877123878], [127.37094965634495, 36.743668377439484], [127.37095124456634, 36.74374732778424], [127.37096021334615, 36.743829228657376], [127.3709217376042, 36.74389616549787], [127.37096164436238, 36.743915217389684], [127.37102999357909, 36.74395546482849], [127.37112423763217, 36.74415397497707], [127.37107754050881, 36.74433718027264], [127.37111413248356, 36.744451606788274], [127.37118946520329, 36.744556540740895], [127.37122195277551, 36.744569281004075], [127.37122231569488, 36.74457040609756], [127.37129782717935, 36.74464703622614], [127.3713382531638, 36.74467844954674], [127.37141857332995, 36.74483569591361], [127.37143369736609, 36.745063683497925], [127.37159688262567, 36.745205704089734], [127.3717094577004, 36.74534322409026], [127.371993549909, 36.745387287275506], [127.37221218098459, 36.745416802123714], [127.37234039842339, 36.745560895863996], [127.37249766019198, 36.74570476331059], [127.3726664428541, 36.74583199622338], [127.37284115888863, 36.74595409231483], [127.37304286839914, 36.74605703608257], [127.37329924937788, 36.74609621779145], [127.37336189339422, 36.746090741437484], [127.37339894800137, 36.74623515422952], [127.37341175618072, 36.74640649637058], [127.37337054147547, 36.746581115426906], [127.37335175770284, 36.74665650691427], [127.37330641344226, 36.7467457683299], [127.3730956614901, 36.74693221736825], [127.37307573595876, 36.747147022689006], [127.3732874491083, 36.74733832438768], [127.37341995690095, 36.74750274173031], [127.3734072385531, 36.74766776551238], [127.37339044904049, 36.74783621662178], [127.37324850354746, 36.74801135787665], [127.37315736586868, 36.748203912743726], [127.37315353635056, 36.748535910453434], [127.37323851877305, 36.748729347906895], [127.3734607745508, 36.748844382573594], [127.37356922905334, 36.74900080920307], [127.37378174799169, 36.74912351567034], [127.37394550907136, 36.74924075085065], [127.3739828502411, 36.7493790805754], [127.37395617027718, 36.749414685420824], [127.37388318305861, 36.74942852974574], [127.3738915742217, 36.74954057410607], [127.37393094019411, 36.749727115683456], [127.37401054350471, 36.749902960885336], [127.37400603935187, 36.75006459798879], [127.37389593464408, 36.750241271599506], [127.3738491620622, 36.75041769288232], [127.37384212915185, 36.75048699203247], [127.37383530015906, 36.75067512848351], [127.37383145986121, 36.750758591784376], [127.37370124187429, 36.75072893863526], [127.37311434375306, 36.750583720956854], [127.37235989366165, 36.75009871905449], [127.37230554289205, 36.75006671917438], [127.37188863746367, 36.750497701548724], [127.37168862756565, 36.750699361050735], [127.37147606820311, 36.750832107043685], [127.37120712159017, 36.75089618244783], [127.37051575119806, 36.75092178394761], [127.36966782421487, 36.750924410387924], [127.36962458650363, 36.75092394973524], [127.36957276359323, 36.750921802661615], [127.36952108980311, 36.75091794397509], [127.36946966484633, 36.75091235352182], [127.36941856687638, 36.75090506872946], [127.36936788752125, 36.750896078800885], [127.36931771481603, 36.75088542116367], [127.36928145791285, 36.75087642259563], [127.3692435939236, 36.750866311981184], [127.36843115668233, 36.75063431594859], [127.36837270240846, 36.75062007812559], [127.36831283777964, 36.750610314407844], [127.36825209819169, 36.75060512196659], [127.36819102173557, 36.75060454398895], [127.36813014740031, 36.75060858839261], [127.36807001058196, 36.750617217028925], [127.36801116104938, 36.75063035647945], [127.36795409107937, 36.75064787862243], [127.36789932438974, 36.75066964669812], [127.36784734337581, 36.75069545196899], [127.36778697569041, 36.750733042773454], [127.3677325009533, 36.750776076469975], [127.36724596620886, 36.75120850087216], [127.3668741382414, 36.75151784899748], [127.36684410127327, 36.751564203964136], [127.36630386973273, 36.7518540177796], [127.36614521557549, 36.751858550115436], [127.36613256100806, 36.75186078785272], [127.36607775569094, 36.751865064673], [127.36595886456136, 36.751817381928106], [127.36573212708869, 36.75194310472518], [127.3655602299675, 36.75210765975138], [127.3653927399811, 36.75220479761428], [127.36525756598873, 36.75218787394583], [127.36507799545839, 36.752266593840275], [127.36500331671216, 36.75235712197888], [127.36482660192614, 36.752431354022804], [127.3646245564457, 36.752505609027075], [127.36448826135582, 36.75251220702123], [127.36439399394652, 36.752628430807924], [127.36446254887743, 36.75353164536589], [127.3649806549125, 36.753917531581244], [127.36501430670137, 36.75394605710248], [127.36690839639311, 36.75555184194294], [127.36700542073194, 36.75553294552235], [127.36703645033856, 36.755504131260935], [127.36730625484253, 36.75525356080701], [127.36803570392121, 36.75574760081324]]]}}, {"id": "2", "type": "Feature", "properties": {"complex_cd": "243610", "complex_nm": "오창3", "factories": 31, "source": "국토교통부 산업단지 경계도면(15152766, 2026-06-30)", "targets": 39, "status": "운영"}, "geometry": {"type": "Polygon", "coordinates": [[[127.35265079434433, 36.73314554891144], [127.35265483496647, 36.733123189836476], [127.35265898787806, 36.733101010019254], [127.35266718141179, 36.73305638110902], [127.35266794497971, 36.733051872860536], [127.35268433204718, 36.73296279494163], [127.35270083050565, 36.73287362620701], [127.35271721757312, 36.73278445808872], [127.35272792189798, 36.732725764236996], [127.35274715123498, 36.73262162908387], [127.35276594488907, 36.73252019861351], [127.35283128385122, 36.7321672207991], [127.35229773218317, 36.731849800360074], [127.3520431325637, 36.7314754181649], [127.35179352308553, 36.731262769883614], [127.3515222417512, 36.73120787910981], [127.35119423270504, 36.73103646056179], [127.35100917167165, 36.73091138891394], [127.35098023693634, 36.730924630372485], [127.35081098355701, 36.73100217191057], [127.35045994170693, 36.730836496010696], [127.35039935932414, 36.73080792806097], [127.34996523319178, 36.73076198173286], [127.34967899131466, 36.73049230550599], [127.34921378616839, 36.73045527787693], [127.34886328240916, 36.73038304119059], [127.34834872382115, 36.730075550338746], [127.348043571509, 36.73005517315503], [127.34765943572386, 36.73004646877041], [127.34655812813494, 36.730381996524976], [127.34603994574313, 36.73013830537826], [127.34521459611798, 36.730174753588784], [127.34445286428287, 36.730470172446275], [127.34394530087599, 36.73014588228769], [127.34278582647417, 36.73067302859007], [127.34187093008656, 36.73101852140608], [127.34110925484535, 36.73153478180763], [127.34111154644759, 36.7320042544151], [127.3415269696558, 36.732429114315565], [127.34247308968612, 36.73240631298658], [127.34301662702683, 36.7326611207468], [127.34329722389067, 36.73282233484329], [127.34336565395574, 36.732904139382946], [127.34338073577109, 36.73292229911931], [127.34361461485025, 36.73320178242068], [127.34413564040999, 36.73317523261271], [127.344346400447, 36.733164443645876], [127.34437073311311, 36.73317320383205], [127.34444164791825, 36.73328482772451], [127.34442944610174, 36.73346112024339], [127.3444689054989, 36.733648978784295], [127.3444931195874, 36.73383246544957], [127.34452111737988, 36.73403576554489], [127.34498999573735, 36.734088840079], [127.34679931860225, 36.73429356422871], [127.34696946400862, 36.73431280424489], [127.34702300539621, 36.7343188667388], [127.34700970404181, 36.73439838320253], [127.34722420646024, 36.734422630988426], [127.34748407469893, 36.73445206294231], [127.34745296783724, 36.734630483752106], [127.34742797041787, 36.73477320253535], [127.3474183647325, 36.73482810803826], [127.34741618182636, 36.734840729689516], [127.34741377613805, 36.734853352058586], [127.34741136955138, 36.73486597514556], [127.34740873928429, 36.73487859823041], [127.34740610811878, 36.734891131323124], [127.34740325417113, 36.734903755123824], [127.34740039932514, 36.73491628893237], [127.34739743308808, 36.734928822738866], [127.34739435366329, 36.7349412672733], [127.34739116374573, 36.734953801795655], [127.34738786064041, 36.73496624704598], [127.34738444614405, 36.73497878228419], [127.34738091935823, 36.7349912275304], [127.347377280283, 36.73500358350467], [127.3473735298167, 36.7350160294668], [127.3473697784521, 36.735028386156955], [127.34736580340694, 36.73504074284512], [127.3473618283618, 36.73505309953134], [127.34735762963614, 36.735065456935466], [127.34735343001218, 36.73507772434776], [127.34734911899719, 36.73508999175814], [127.34734469569267, 36.735102259886446], [127.34734016009885, 36.73511443802305], [127.34733551311386, 36.735126706867376], [127.34733075383951, 36.7351388850001], [127.34732588227571, 36.73515097458096], [127.34732101071194, 36.73516315342977], [127.34731591456932, 36.73517524300679], [127.347310819325, 36.735187333301894], [127.34730561089303, 36.73519933288548], [127.34730017878051, 36.735211333187124], [127.34729474666794, 36.73522333420675], [127.34728920226604, 36.73523533522458], [127.347283546473, 36.73524724625088], [127.34727788978167, 36.73525915727533], [127.3472720094098, 36.735270979028265], [127.34726612903792, 36.73528280005944], [127.34726002408725, 36.735294622528656], [127.34725391913659, 36.735306355006486], [127.34724770189653, 36.73531808748257], [127.34724137326539, 36.73532981995682], [127.34723493144645, 36.73534146315972], [127.34722837823645, 36.73535310636081], [127.3472218250265, 36.735364750280056], [127.34721515952702, 36.73537630348818], [127.34720827034714, 36.73538776742503], [127.34720138026887, 36.73539932206954], [127.34692932099352, 36.7358481441507], [127.34677739791267, 36.736098733340135], [127.34630117223446, 36.73688426083097], [127.3461616917186, 36.737114178328916], [127.34611167891347, 36.73719668451597], [127.34603799280569, 36.73731818747154], [127.34581815619109, 36.73768079970335], [127.34585477242037, 36.737707096710196], [127.34596005227667, 36.73779050500588], [127.34608974834245, 36.7378259035796], [127.34620323790217, 36.73784242583592], [127.3463129590293, 36.737892659923624], [127.34640207549877, 36.73794169247931], [127.3464844258575, 36.73800516242011], [127.34650462717163, 36.73801600757804], [127.34650911695137, 36.73801842785137], [127.34660675753454, 36.73807094963574], [127.34662033736674, 36.73807820901056], [127.34675986998484, 36.738134934910775], [127.3468557615482, 36.738171782463176], [127.34693941985395, 36.73820208692518], [127.34709074375847, 36.73824147709273], [127.34710341539395, 36.73824594616252], [127.3472577261968, 36.73835227942289], [127.34736888462838, 36.7384229637334], [127.3475222764547, 36.73859868510218], [127.34766296520456, 36.73876299878861], [127.34776763959644, 36.738885425754134], [127.34781311321443, 36.73893899941322], [127.34784303519822, 36.73897027109371], [127.34787264636495, 36.738982080037154], [127.3479225585588, 36.739001939416355], [127.34802305578455, 36.7390419259551], [127.34815989435515, 36.7390963151299], [127.34819281940696, 36.73907333149154], [127.34892803207649, 36.73871614944704], [127.35018377623238, 36.73806917438589], [127.35053128321181, 36.7378671181474], [127.35066406049906, 36.73776661535079], [127.35066751991124, 36.7377640820463], [127.35114521163995, 36.737384482803286], [127.3511824719613, 36.73735490727434], [127.35129073152943, 36.73727979676836], [127.35138421470953, 36.737229781128676], [127.35152640634087, 36.73715655303617], [127.35155645319053, 36.7371410557686], [127.3516270472971, 36.73710498377313], [127.35193859830898, 36.73685184581637], [127.35201143910214, 36.73679269865601], [127.35209555375204, 36.73667701888831], [127.35213148366847, 36.73662582005363], [127.35218603655909, 36.736558436290856], [127.3522456029472, 36.736510141474234], [127.35224895096832, 36.73650787881255], [127.35224947378777, 36.73649976764143], [127.35225111950139, 36.73646768290111], [127.35225184174686, 36.73645425450318], [127.35225328623785, 36.73642721628399], [127.35225576828296, 36.73638224375232], [127.3522570097547, 36.73635971212251], [127.35225813893705, 36.7363372711943], [127.35226062098215, 36.73629220862157], [127.35226072428843, 36.73629022599731], [127.35227044765308, 36.736212792026876], [127.35227120583116, 36.73620711267358], [127.35231281310018, 36.735878264512934], [127.35232480830415, 36.73578334202934], [127.35232880580718, 36.73575143120827], [127.35234315010564, 36.73548384874053], [127.35234325970006, 36.73548330808455], [127.35234604807073, 36.73543175641526], [127.35234740003524, 36.735408953818265], [127.35234823277347, 36.73539516455747], [127.35235041657795, 36.735358482692725], [127.35235115139984, 36.73534766739584], [127.35235407990771, 36.73530242282322], [127.3523571207049, 36.73525717822398], [127.35236048759062, 36.73520977024674], [127.35236365145705, 36.73516677749539], [127.35236714051358, 36.735121621366126], [127.35237074275788, 36.73507682588948], [127.35237413479638, 36.73503491438189], [127.35237445818993, 36.735032209646484], [127.35237839101421, 36.73498606138919], [127.35238243972123, 36.73494090371383], [127.3523843612176, 36.73492044287077], [127.352386282714, 36.734899802042214], [127.35239119919352, 36.73484842420184], [127.35239548146247, 36.7348054283685], [127.3523999784288, 36.73476035985711], [127.35240481136505, 36.73471528987939], [127.35240566925617, 36.73470690710829], [127.3524088915131, 36.73467698066552], [127.3524147000197, 36.734624969144065], [127.3524198689258, 36.734579898366924], [127.35242482582959, 36.734537351615494], [127.35243011151671, 36.73449345138334], [127.35243648416531, 36.73444242963367], [127.35244188753173, 36.73439970138497], [127.35244772837773, 36.73435462831583], [127.35245400760158, 36.734307571824914], [127.35245996792352, 36.73426430139673], [127.35246625792713, 36.73421958749146], [127.35247265932183, 36.73417469357842], [127.35247862862688, 36.734133405035465], [127.35248590767563, 36.73408472353185], [127.35249275643137, 36.73403973738912], [127.35249971657815, 36.73399484193103], [127.3525072273923, 36.733947781619925], [127.35251408602946, 36.73390504877634], [127.35252149443558, 36.733860151799654], [127.35252901513114, 36.73381525407676], [127.35253708559567, 36.733768192215706], [127.35254450478163, 36.73372554782369], [127.35256186921607, 36.73362979835612], [127.35257257443928, 36.73357128441384], [127.35257705254101, 36.73354667135309], [127.35258524607471, 36.73350213197365], [127.35259092522392, 36.733470846546616], [127.3525934396084, 36.73345750329659], [127.3526016331421, 36.73341296386543], [127.35260239581179, 36.733408456357765], [127.35260982667583, 36.73336842512832], [127.35261802020949, 36.73332379565365], [127.35262621374322, 36.73327925686481], [127.35263440727695, 36.73323471733024], [127.35263517084495, 36.73323020981216], [127.35264096228356, 36.73319901426636], [127.3526426008106, 36.733190088497786], [127.35265079434433, 36.73314554891144]]]}}, {"id": "3", "type": "Feature", "properties": {"complex_cd": "243250", "complex_nm": "오창2", "factories": 8, "source": "국토교통부 산업단지 경계도면(15152766, 2026-06-30)", "targets": 12, "status": "운영"}, "geometry": {"type": "Polygon", "coordinates": [[[127.43930849490744, 36.73435700694891], [127.43944870755026, 36.735252012820595], [127.4418720621495, 36.735655418619444], [127.4422628670273, 36.735747056301804], [127.44236146431626, 36.73579931543268], [127.44244584396922, 36.73587136200595], [127.44246989815763, 36.73592723212353], [127.44249253929601, 36.735970941479465], [127.44258005406931, 36.73602342219009], [127.44260786231725, 36.73603088837254], [127.44261728115302, 36.73603337709989], [127.44266253288713, 36.73603708391405], [127.44273757994259, 36.73604329385321], [127.44277156680303, 36.73605443157151], [127.44286661574665, 36.73609309717291], [127.44287952094405, 36.73609836546666], [127.44294731590018, 36.73608946379215], [127.44305737569216, 36.736090316884344], [127.44327612534529, 36.736068239431525], [127.44344746101942, 36.73605588866801], [127.44350981398162, 36.73605457555341], [127.44359686073271, 36.73600586287208], [127.44370417347649, 36.73597689945547], [127.44373572230928, 36.73597281684531], [127.4437839402805, 36.735966690410045], [127.44381067863489, 36.73596325715835], [127.44386963057542, 36.735974121322464], [127.44388575713145, 36.735974962897345], [127.44401835565387, 36.735982129601965], [127.44406203264128, 36.735984490186894], [127.44408028730616, 36.7359855031003], [127.44417975326606, 36.73589646458072], [127.44430380881015, 36.735897715065796], [127.44435721545038, 36.73589823700112], [127.44438193708703, 36.73589454097896], [127.44438361513996, 36.73589426453319], [127.44470868310195, 36.735845746126195], [127.4451123006507, 36.736217661483536], [127.44507310266329, 36.73633224840512], [127.44526741903901, 36.73646101297663], [127.44536546655902, 36.736514714311134], [127.44570768964792, 36.73662562495968], [127.44597347329277, 36.736780164433924], [127.4460166103927, 36.73684416230334], [127.44670511695567, 36.73786524714719], [127.44706004940925, 36.73839169758902], [127.44707224493759, 36.73840976460167], [127.44785872895199, 36.73869300875998], [127.44893816346202, 36.739081838325255], [127.44911164610967, 36.73911047230479], [127.44946329791584, 36.73914555424227], [127.44949085643213, 36.73914833370031], [127.45012429896315, 36.7391035052992], [127.45013404119241, 36.73910373926043], [127.45039438194489, 36.73910897495296], [127.45041487341481, 36.73910934857105], [127.45188951454756, 36.73947251024652], [127.45189595367155, 36.73946311440751], [127.45192426048443, 36.73942146589045], [127.45193913568724, 36.739399603199466], [127.45196155943339, 36.73936671772677], [127.4521759172231, 36.739051780409994], [127.45222764760703, 36.73897580122707], [127.45223985750836, 36.73895782289315], [127.45211292016886, 36.738847467764636], [127.45187749778398, 36.7386421848903], [127.45171466196906, 36.738500245738], [127.451701495362, 36.738488761389284], [127.45171271801482, 36.7384741210558], [127.45180471717802, 36.738353565862376], [127.45183160465281, 36.73831814017631], [127.45220604312443, 36.73782751181992], [127.45237692784436, 36.73760366013276], [127.45242381361393, 36.737541846339354], [127.45258980970205, 36.737324591679396], [127.45270143256265, 36.73738192932905], [127.45300699360823, 36.73753900491213], [127.45315533780095, 36.73761521660342], [127.45318924830461, 36.73763202830273], [127.45334959219292, 36.73771143838989], [127.45335206255999, 36.73771269028521], [127.45335442063758, 36.73771385291368], [127.45340169178444, 36.737737192586515], [127.45350196353313, 36.73778691345932], [127.45354766352659, 36.73780953753643], [127.45355878017818, 36.73781508215124], [127.4538702790878, 36.73797231378435], [127.4543332114964, 36.73821628529868], [127.45437712384245, 36.73823945636475], [127.45441800437443, 36.738261017752826], [127.45463217621288, 36.7383739221266], [127.45474201322267, 36.738431715400786], [127.45482051789368, 36.73847313769061], [127.45483354526192, 36.738480027005686], [127.4548342189984, 36.73848038478932], [127.45492450058276, 36.73844922305188], [127.45495779663877, 36.73843774229496], [127.45528484089432, 36.738324758107474], [127.45539804119656, 36.73828819210491], [127.45586213063524, 36.7381383695051], [127.45586470071527, 36.73813754883072], [127.45611209764283, 36.73805568435755], [127.45637817144355, 36.73797032400459], [127.456615635699, 36.73789408387022], [127.45675342109386, 36.737849852967294], [127.45724086403501, 36.73769317684148], [127.45728075731846, 36.73768031881406], [127.45736188417179, 36.737654056352966], [127.457373617966, 36.73765031650173], [127.45737931777653, 36.73764849300927], [127.4574226749637, 36.73763444930807], [127.45744535832296, 36.73762706390975], [127.45761152509091, 36.73757344182194], [127.45763812869808, 36.737566221273745], [127.4579401593646, 36.73748450448982], [127.45813387386909, 36.73743203773619], [127.45807681737384, 36.73742036173515], [127.45797111171596, 36.73739868996675], [127.45789093258531, 36.73732033132628], [127.45788181109192, 36.737311354924145], [127.45787955901554, 36.73730920099062], [127.457740575268, 36.7371695212959], [127.45768875774749, 36.73711601407235], [127.45764445373598, 36.7370456273169], [127.45756169644045, 36.73692880040793], [127.45749344873336, 36.73684210482355], [127.45744945643723, 36.73678649453668], [127.45740818603646, 36.73673682196932], [127.45734609628066, 36.73666902579921], [127.45731963011579, 36.73664272483723], [127.45729147601644, 36.736614808401434], [127.45725328324383, 36.7365744044936], [127.4572428232607, 36.73656624437598], [127.45721604178709, 36.7365432786976], [127.45721244313606, 36.73654058913338], [127.45719478764751, 36.736527500543275], [127.45717218423833, 36.73651055613955], [127.4571252014506, 36.736479287776405], [127.45710159731819, 36.736463518247824], [127.45706632047698, 36.7364240047839], [127.45704828859431, 36.73640388917118], [127.45691428420844, 36.736253826764035], [127.45690380356405, 36.73624215202357], [127.45688971528543, 36.736226346450934], [127.45686210376849, 36.736195454483905], [127.45674176275813, 36.73606507399064], [127.4567066080878, 36.7360270015807], [127.45662458471581, 36.73593918695701], [127.45637400954878, 36.735670983858775], [127.45632826643617, 36.73562204776091], [127.456126141904, 36.735405833704874], [127.45611419880231, 36.73539299329219], [127.45591894907699, 36.735184321167075], [127.45581675403533, 36.735073965653186], [127.45570363188656, 36.73495184649381], [127.45562172709221, 36.73486475200064], [127.45559758756387, 36.734834115777495], [127.45556149325577, 36.734788387115216], [127.45534198362789, 36.73450907013262], [127.45521103800552, 36.73436394990786], [127.45495688395046, 36.73409449655137], [127.45495350359005, 36.73409090483183], [127.45489128088354, 36.734018692443904], [127.45484357495202, 36.73392119391369], [127.45480334569868, 36.73385772923539], [127.45467158620268, 36.73364998524908], [127.454608080702, 36.73354993336879], [127.4545162567103, 36.73341286379456], [127.45445730027821, 36.73332486979659], [127.45444751672646, 36.733317427828695], [127.45431189986465, 36.73321494717106], [127.45390741005176, 36.73290911704024], [127.45386703976293, 36.73287854267145], [127.45373487063516, 36.73277199376634], [127.45368852744798, 36.732734683580084], [127.45360223528172, 36.732662292091106], [127.45356934256935, 36.7326277241087], [127.45334765452685, 36.73239463838097], [127.45324171171382, 36.73229276484474], [127.45324582779446, 36.73228842357856], [127.45315085790264, 36.73220597187193], [127.45295498025493, 36.73205938436184], [127.45291646678379, 36.73202087223751], [127.45281871930108, 36.7319228420083], [127.45279653540508, 36.73190066904386], [127.45247964929878, 36.7315834181313], [127.45243561657846, 36.73153888985211], [127.452455995759, 36.73152052028254], [127.4524862869504, 36.73149319234488], [127.45262634418465, 36.73136055905125], [127.45263034977252, 36.73133711520631], [127.45270816723227, 36.73122436175313], [127.45277545104707, 36.731148142997384], [127.45278223602241, 36.73114063818244], [127.45286201899603, 36.73107689762244], [127.45289045696303, 36.73103903296601], [127.45293122520556, 36.730984812312094], [127.45294650914177, 36.73097574301467], [127.45303932756855, 36.73092051365567], [127.45310653592485, 36.73085051287712], [127.45262719758416, 36.730128469938194], [127.45248522693836, 36.729914543585], [127.45233241542371, 36.72968434893623], [127.45222726672138, 36.72952606213098], [127.45217971799504, 36.72945442358654], [127.45208258765493, 36.72930800073685], [127.45187658419734, 36.72899780783171], [127.45181570896385, 36.7289060346577], [127.45177222691079, 36.72884050813963], [127.45157221072462, 36.72853921301704], [127.45116665011987, 36.72792835235159], [127.45116574641472, 36.72792700381863], [127.45112441133524, 36.727864712802955], [127.45111661845013, 36.72785293814872], [127.45087594990409, 36.72749033925675], [127.45081451322346, 36.727397847170465], [127.45076211089973, 36.72731892752925], [127.4505851418904, 36.72705232654346], [127.45055792024236, 36.72701052729447], [127.44981651548557, 36.725893693768086], [127.4497488112592, 36.725897372991604], [127.44971569576458, 36.72586217411932], [127.44972662646495, 36.725758956305185], [127.44938421832303, 36.72524246770758], [127.44930573610995, 36.72512489778608], [127.44901381598197, 36.7246850823413], [127.44899408538505, 36.72466073643805], [127.44892802058412, 36.724715321565306], [127.4487604650207, 36.72485373149257], [127.44863334891645, 36.7249588275983], [127.44750449089608, 36.725899856287356], [127.44746404155546, 36.72593199728433], [127.44718401512185, 36.726154358758556], [127.44715181141723, 36.72617998075176], [127.44538394490438, 36.72758862282111], [127.44518291721519, 36.72774877838705], [127.4445357017142, 36.7282644610276], [127.44299197744115, 36.72949813878758], [127.44237291603952, 36.729989464746254], [127.44074735704073, 36.73072447258106], [127.43933092404343, 36.7313667751283], [127.43932256072813, 36.732476791828695], [127.43931556285207, 36.733432894518934], [127.43930849490744, 36.73435700694891]]]}}]}