{"type": "FeatureCollection", "features": [{"type": "Feature", "geometry": {"type": "Point", "coordinates": [127.801431, 36.807585]}, "properties": {"name": "괴산119안전센터", "station": "괴산소방서", "addr": "충청북도 괴산군 괴산읍 괴강로 69", "source": "소방청 119안전센터 현황(15065056, 2026-07-01)"}}, {"type": "Feature", "geometry": {"type": "Point", "coordinates": [127.734223, 36.658101]}, "properties": {"name": "청천119안전센터", "station": "괴산소방서", "addr": "충청북도 괴산군 청천면 선평길 78-9", "source": "소방청 119안전센터 현황(15065056, 2026-07-01)"}}, {"type": "Feature", "geometry": {"type": "Point", "coordinates": [128.356387, 36.98907]}, "properties": {"name": "단양119안전센터", "station": "단양소방서", "addr": "충청북도 단양군 단양읍 삼봉로 421-56", "source": "소방청 119안전센터 현황(15065056, 2026-07-01)"}}, {"type": "Feature", "geometry": {"type": "Point", "coordinates": [128.294854, 37.03115]}, "properties": {"name": "매포119안전센터", "station": "단양소방서", "addr": "충청북도 단양군 매포읍 평동4로 79", "source": "소방청 119안전센터 현황(15065056, 2026-07-01)"}}, {"type": "Feature", "geometry": {"type": "Point", "coordinates": [127.814482, 36.43665]}, "properties": {"name": "구병산119안전센터", "station": "보은소방서", "addr": "충청북도 보은군 마로면 관기송현로 48", "source": "소방청 119안전센터 현황(15065056, 2026-07-01)"}}, {"type": "Feature", "geometry": {"type": "Point", "coordinates": [127.722029, 36.477001]}, "properties": {"name": "보은119안전센터", "station": "보은소방서", "addr": "충청북도 보은군 보은읍 남부로 4415", "source": "소방청 119안전센터 현황(15065056, 2026-07-01)"}}, {"type": "Feature", "geometry": {"type": "Point", "coordinates": [127.823813, 36.53208]}, "properties": {"name": "속리산119안전센터", "station": "보은소방서", "addr": "충청북도 보은군 속리산면 법주사로 278", "source": "소방청 119안전센터 현황(15065056, 2026-07-01)"}}, {"type": "Feature", "geometry": {"type": "Point", "coordinates": [127.789067, 36.165642]}, "properties": {"name": "영동119안전센터", "station": "영동소방서", "addr": "충청북도 영동군 영동읍 영동황간로 174", "source": "소방청 119안전센터 현황(15065056, 2026-07-01)"}}, {"type": "Feature", "geometry": {"type": "Point", "coordinates": [127.685779, 36.09966]}, "properties": {"name": "학산119안전센터", "station": "영동소방서", "addr": "충청북도 영동군 학산면 서산로 92", "source": "소방청 119안전센터 현황(15065056, 2026-07-01)"}}, {"type": "Feature", "geometry": {"type": "Point", "coordinates": [127.90399, 36.235296]}, "properties": {"name": "황간119안전센터", "station": "영동소방서", "addr": "충청북도 영동군 황간면 황간로 132", "source": "소방청 119안전센터 현황(15065056, 2026-07-01)"}}, {"type": "Feature", "geometry": {"type": "Point", "coordinates": [127.574649, 36.307929]}, "properties": {"name": "옥천119안전센터", "station": "옥천소방서", "addr": "충청북도 옥천군 옥천읍 중앙로 132", "source": "소방청 119안전센터 현황(15065056, 2026-07-01)"}}, {"type": "Feature", "geometry": {"type": "Point", "coordinates": [127.61569, 36.250156]}, "properties": {"name": "이원119안전센터", "station": "옥천소방서", "addr": "충청북도 옥천군 묘목로 165", "source": "소방청 119안전센터 현황(15065056, 2026-07-01)"}}, {"type": "Feature", "geometry": {"type": "Point", "coordinates": [127.781338, 36.345065]}, "properties": {"name": "청산119안전센터", "station": "옥천소방서", "addr": "충청북도 옥천군 청산면 남부로 2306", "source": "소방청 119안전센터 현황(15065056, 2026-07-01)"}}, {"type": "Feature", "geometry": {"type": "Point", "coordinates": [127.643635, 37.112283]}, "properties": {"name": "감곡119안전센터", "station": "음성소방서", "addr": "충청북도 음성군 감곡면 음성로 2652", "source": "소방청 119안전센터 현황(15065056, 2026-07-01)"}}, {"type": "Feature", "geometry": {"type": "Point", "coordinates": [127.594995, 36.989328]}, "properties": {"name": "금왕119안전센터", "station": "음성소방서", "addr": "충청북도 음성군 금왕읍 응천서길 11", "source": "소방청 119안전센터 현황(15065056, 2026-07-01)"}}, {"type": "Feature", "geometry": {"type": "Point", "coordinates": [127.503348, 37.016535]}, "properties": {"name": "삼성119안전센터", "station": "음성소방서", "addr": "충청북도 음성군 삼성면 금일로 831", "source": "소방청 119안전센터 현황(15065056, 2026-07-01)"}}, {"type": "Feature", "geometry": {"type": "Point", "coordinates": [127.678562, 36.930537]}, "properties": {"name": "음성119안전센터", "station": "음성소방서", "addr": "충청북도 음성군 음성읍 음성로 122", "source": "소방청 119안전센터 현황(15065056, 2026-07-01)"}}, {"type": "Feature", "geometry": {"type": "Point", "coordinates": [128.163828, 36.912563]}, "properties": {"name": "덕산119안전센터", "station": "제천소방서", "addr": "충청북도 제천시 덕산면 약초로 57", "source": "소방청 119안전센터 현황(15065056, 2026-07-01)"}}, {"type": "Feature", "geometry": {"type": "Point", "coordinates": [128.128626, 37.131579]}, "properties": {"name": "봉양119안전센터", "station": "제천소방서", "addr": "충청북도 제천시 봉양읍 북부로1433", "source": "소방청 119안전센터 현황(15065056, 2026-07-01)"}}, {"type": "Feature", "geometry": {"type": "Point", "coordinates": [128.212845, 37.16062]}, "properties": {"name": "의림지119안전센터", "station": "제천소방서", "addr": "충청북도 제천시 신죽하로 164", "source": "소방청 119안전센터 현황(15065056, 2026-07-01)"}}, {"type": "Feature", "geometry": {"type": "Point", "coordinates": [128.204071, 37.118662]}, "properties": {"name": "화산119안전센터", "station": "제천소방서", "addr": "충청북도 제천시 강명길 17", "source": "소방청 119안전센터 현황(15065056, 2026-07-01)"}}, {"type": "Feature", "geometry": {"type": "Point", "coordinates": [127.583755, 36.787847]}, "properties": {"name": "증평119안전센터", "station": "증평소방서", "addr": "충청북도 증평군 충청대로 1789", "source": "소방청 119안전센터 현황(15065056, 2026-07-01)"}}, {"type": "Feature", "geometry": {"type": "Point", "coordinates": [127.436884, 36.991646]}, "properties": {"name": "광혜원119안전센터", "station": "진천소방서", "addr": "충청북도 진천군 광혜원면 화랑길 99", "source": "소방청 119안전센터 현황(15065056, 2026-07-01)"}}, {"type": "Feature", "geometry": {"type": "Point", "coordinates": [127.510661, 36.89927]}, "properties": {"name": "덕산119안전센터", "station": "진천소방서", "addr": "충청북도 진천군 덕산읍 초금로 606-1", "source": "소방청 119안전센터 현황(15065056, 2026-07-01)"}}, {"type": "Feature", "geometry": {"type": "Point", "coordinates": [127.441202, 36.872649]}, "properties": {"name": "진천119안전센터", "station": "진천소방서", "addr": "충청북도 진천군 진천읍 진광로 93", "source": "소방청 119안전센터 현황(15065056, 2026-07-01)"}}, {"type": "Feature", "geometry": {"type": "Point", "coordinates": [127.539036, 36.724574]}, "properties": {"name": "내수119안전센터", "station": "청주동부소방서", "addr": "충청북도 청주시 청원구 내수읍 청암로80", "source": "소방청 119안전센터 현황(15065056, 2026-07-01)"}}, {"type": "Feature", "geometry": {"type": "Point", "coordinates": [127.655696, 36.637729]}, "properties": {"name": "미원119안전센터", "station": "청주동부소방서", "addr": "충청북도 청주시 상당구 미원면 미원초정로 21-21", "source": "소방청 119안전센터 현황(15065056, 2026-07-01)"}}, {"type": "Feature", "geometry": {"type": "Point", "coordinates": [127.496553, 36.517313]}, "properties": {"name": "문의119안전센터", "station": "청주동부소방서", "addr": "충청북도 청주시 상당구 문의면 문의시내1길 8", "source": "소방청 119안전센터 현황(15065056, 2026-07-01)"}}, {"type": "Feature", "geometry": {"type": "Point", "coordinates": [127.490223, 36.643562]}, "properties": {"name": "북문119안전센터", "station": "청주동부소방서", "addr": "충청북도 청주시 상당구 상당로 168", "source": "소방청 119안전센터 현황(15065056, 2026-07-01)"}}, {"type": "Feature", "geometry": {"type": "Point", "coordinates": [127.475664, 36.679978]}, "properties": {"name": "사천119안전센터", "station": "청주동부소방서", "addr": "충청북도 청주시 청원구 밀레니엄1로 63", "source": "소방청 119안전센터 현황(15065056, 2026-07-01)"}}, {"type": "Feature", "geometry": {"type": "Point", "coordinates": [127.495094, 36.620934]}, "properties": {"name": "영운119안전센터", "station": "청주동부소방서", "addr": "충청북도 청주시 상당구 영운로 61", "source": "소방청 119안전센터 현황(15065056, 2026-07-01)"}}, {"type": "Feature", "geometry": {"type": "Point", "coordinates": [127.432423, 36.712783]}, "properties": {"name": "오창119안전센터", "station": "청주동부소방서", "addr": "충청북도 청주시 청원구 오창읍 중심상업2로 30", "source": "소방청 119안전센터 현황(15065056, 2026-07-01)"}}, {"type": "Feature", "geometry": {"type": "Point", "coordinates": [127.436991, 36.627247]}, "properties": {"name": "가경119안전센터", "station": "청주서부소방서", "addr": "충청북도 청주시 흥덕구 가경로 143", "source": "소방청 119안전센터 현황(15065056, 2026-07-01)"}}, {"type": "Feature", "geometry": {"type": "Point", "coordinates": [127.428776, 36.530725]}, "properties": {"name": "남이119안전센터", "station": "청주서부소방서", "addr": "충청북도 청주시 서원구 청남로 866", "source": "소방청 119안전센터 현황(15065056, 2026-07-01)"}}, {"type": "Feature", "geometry": {"type": "Point", "coordinates": [127.439725, 36.639877]}, "properties": {"name": "복대119안전센터", "station": "청주서부소방서", "addr": "충청북도 청주시 흥덕구 공단로 92", "source": "소방청 119안전센터 현황(15065056, 2026-07-01)"}}, {"type": "Feature", "geometry": {"type": "Point", "coordinates": [127.472326, 36.637837]}, "properties": {"name": "사직119안전센터", "station": "청주서부소방서", "addr": "충청북도 청주시 서원구 사직대로 229", "source": "소방청 119안전센터 현황(15065056, 2026-07-01)"}}, {"type": "Feature", "geometry": {"type": "Point", "coordinates": [127.470451, 36.604002]}, "properties": {"name": "산남119안전센터", "station": "청주서부소방서", "addr": "충청북도 청주시 서원구 산미로 70", "source": "소방청 119안전센터 현황(15065056, 2026-07-01)"}}, {"type": "Feature", "geometry": {"type": "Point", "coordinates": [127.32685, 36.631648]}, "properties": {"name": "오송119안전센터", "station": "청주서부소방서", "addr": "충청북도 청주시 흥덕구 오송생명3로 71-5", "source": "소방청 119안전센터 현황(15065056, 2026-07-01)"}}, {"type": "Feature", "geometry": {"type": "Point", "coordinates": [127.389311, 36.6721]}, "properties": {"name": "옥산119안전센터", "station": "청주서부소방서", "addr": "충청북도 청주시 흥덕구 오송가락로 1015", "source": "소방청 119안전센터 현황(15065056, 2026-07-01)"}}, {"type": "Feature", "geometry": {"type": "Point", "coordinates": [127.920268, 37.003265]}, "properties": {"name": "목행119안전센터", "station": "충주소방서", "addr": "충청북도 충주시 목행산단7로 9", "source": "소방청 119안전센터 현황(15065056, 2026-07-01)"}}, {"type": "Feature", "geometry": {"type": "Point", "coordinates": [127.82966, 37.002292]}, "properties": {"name": "서충주119안전센터", "station": "충주소방서", "addr": "충청북도 충주시 기업도시2로 30", "source": "소방청 119안전센터 현황(15065056, 2026-07-01)"}}, {"type": "Feature", "geometry": {"type": "Point", "coordinates": [127.994099, 36.847088]}, "properties": {"name": "수안보119안전센터", "station": "충주소방서", "addr": "충청북도 충주시 수안보면 관동길 9-7", "source": "소방청 119안전센터 현황(15065056, 2026-07-01)"}}, {"type": "Feature", "geometry": {"type": "Point", "coordinates": [127.752258, 37.108691]}, "properties": {"name": "앙성119안전센터", "station": "충주소방서", "addr": "충청북도 충주시 앙성면 가곡로 1019", "source": "소방청 119안전센터 현황(15065056, 2026-07-01)"}}, {"type": "Feature", "geometry": {"type": "Point", "coordinates": [127.935286, 36.982825]}, "properties": {"name": "연수119안전센터", "station": "충주소방서", "addr": "충청북도 충주시 동수10길 1", "source": "소방청 119안전센터 현황(15065056, 2026-07-01)"}}, {"type": "Feature", "geometry": {"type": "Point", "coordinates": [127.791016, 36.971121]}, "properties": {"name": "주덕119안전센터", "station": "충주소방서", "addr": "충청북도 충주시 주덕읍 신양로 35", "source": "소방청 119안전센터 현황(15065056, 2026-07-01)"}}, {"type": "Feature", "geometry": {"type": "Point", "coordinates": [127.927949, 36.959244]}, "properties": {"name": "호암119안전센터", "station": "충주소방서", "addr": "충청북도 충주시 호암대로 13", "source": "소방청 119안전센터 현황(15065056, 2026-07-01)"}}]}